{"type": "FeatureCollection", "features": [ {"type": "Feature", "properties": {"norad_id": 66433, "name": "STARLINK-35457", "group": "last-30-days", "lat": -38.58156825387677, "lon": -12.759522161993752, "alt_km": 418.53528775229734, "timestamp": "2025-12-02T07:10:07.865969+00:00", "meta": {"OBJECT_NAME": "STARLINK-35457", "OBJECT_ID": "2025-259M", "EPOCH": "2025-12-01T20:00:01.999008", "MEAN_MOTION": 15.51423562, "ECCENTRICITY": 0.0001312, "INCLINATION": 42.9997, "RA_OF_ASC_NODE": 111.0805, "ARG_OF_PERICENTER": 278.0712, "MEAN_ANOMALY": 247.016, "EPHEMERIS_TYPE": 0, "CLASSIFICATION_TYPE": "U", "NORAD_CAT_ID": 66433, "ELEMENT_SET_NO": 999, "REV_AT_EPOCH": 452, "BSTAR": -0.023067, "MEAN_MOTION_DOT": -0.01264555, "MEAN_MOTION_DDOT": 0}, "tle": {"line1": "1 66433U 25259M   25335.83335647 -.01264555  00000+0 -23067-1 0  9990", "line2": "2 66433  42.9997 111.0805 0001312 278.0712 247.0160 15.51423562  4529"}}, "geometry": {"type": "Point", "coordinates": [-12.759522161993752, -38.58156825387677]}}, {"type": "Feature", "properties": {"norad_id": 66434, "name": "STARLINK-35389", "group": "last-30-days", "lat": -39.23373733792861, "lon": -10.449445154629887, "alt_km": 418.5391425136959, "timestamp": "2025-12-02T07:10:07.865979+00:00", "meta": {"OBJECT_NAME": "STARLINK-35389", "OBJECT_ID": "2025-259N", "EPOCH": "2025-12-01T20:00:01.999008", "MEAN_MOTION": 15.51424763, "ECCENTRICITY": 0.0001288, "INCLINATION": 42.9997, "RA_OF_ASC_NODE": 111.0759, "ARG_OF_PERICENTER": 276.0281, "MEAN_ANOMALY": 250.9758, "EPHEMERIS_TYPE": 0, "CLASSIFICATION_TYPE": "U", "NORAD_CAT_ID": 66434, "ELEMENT_SET_NO": 999, "REV_AT_EPOCH": 452, "BSTAR": -0.023101, "MEAN_MOTION_DOT": -0.01266277, "MEAN_MOTION_DDOT": 0}, "tle": {"line1": "1 66434U 25259N   25335.83335647 -.01266277  00000+0 -23101-1 0  9993", "line2": "2 66434  42.9997 111.0759 0001288 276.0281 250.9758 15.51424763  4529"}}, "geometry": {"type": "Point", "coordinates": [-10.449445154629887, -39.23373733792861]}}, {"type": "Feature", "properties": {"norad_id": 66435, "name": "STARLINK-35502", "group": "last-30-days", "lat": -39.83702340654125, "lon": -8.105840434391, "alt_km": 418.4904789782713, "timestamp": "2025-12-02T07:10:07.865991+00:00", "meta": {"OBJECT_NAME": "STARLINK-35502", "OBJECT_ID": "2025-259P", "EPOCH": "2025-12-01T20:00:01.999008", "MEAN_MOTION": 15.51416938, "ECCENTRICITY": 0.0001403, "INCLINATION": 42.9995, "RA_OF_ASC_NODE": 111.0713, "ARG_OF_PERICENTER": 277.9096, "MEAN_ANOMALY": 251.0096, "EPHEMERIS_TYPE": 0, "CLASSIFICATION_TYPE": "U", "NORAD_CAT_ID": 66435, "ELEMENT_SET_NO": 999, "REV_AT_EPOCH": 452, "BSTAR": -0.022885, "MEAN_MOTION_DOT": -0.01255236, "MEAN_MOTION_DDOT": 0}, "tle": {"line1": "1 66435U 25259P   25335.83335647 -.01255236  00000+0 -22885-1 0  9995", "line2": "2 66435  42.9995 111.0713 0001403 277.9096 251.0096 15.51416938  4523"}}, "geometry": {"type": "Point", "coordinates": [-8.105840434391, -39.83702340654125]}}, {"type": "Feature", "properties": {"norad_id": 66436, "name": "STARLINK-35501", "group": "last-30-days", "lat": -40.899704558383576, "lon": -3.291998764815472, "alt_km": 418.58876559270084, "timestamp": "2025-12-02T07:10:07.866001+00:00", "meta": {"OBJECT_NAME": "STARLINK-35501", "OBJECT_ID": "2025-259Q", "EPOCH": "2025-12-01T20:00:01.999008", "MEAN_MOTION": 15.51427501, "ECCENTRICITY": 0.0001337, "INCLINATION": 42.9995, "RA_OF_ASC_NODE": 111.061, "ARG_OF_PERICENTER": 278.846, "MEAN_ANOMALY": 253.9071, "EPHEMERIS_TYPE": 0, "CLASSIFICATION_TYPE": "U", "NORAD_CAT_ID": 66436, "ELEMENT_SET_NO": 999, "REV_AT_EPOCH": 452, "BSTAR": -0.023347, "MEAN_MOTION_DOT": -0.01278621, "MEAN_MOTION_DDOT": 0}, "tle": {"line1": "1 66436U 25259Q   25335.83335647 -.01278621  00000+0 -23347-1 0  9993", "line2": "2 66436  42.9995 111.0610 0001337 278.8460 253.9071 15.51427501  4523"}}, "geometry": {"type": "Point", "coordinates": [-3.291998764815472, -40.899704558383576]}}, {"type": "Feature", "properties": {"norad_id": 66437, "name": "STARLINK-35474", "group": "last-30-days", "lat": -41.35416546261775, "lon": -0.8302877890769457, "alt_km": 418.5949894047726, "timestamp": "2025-12-02T07:10:07.866012+00:00", "meta": {"OBJECT_NAME": "STARLINK-35474", "OBJECT_ID": "2025-259R", "EPOCH": "2025-12-01T20:00:01.999008", "MEAN_MOTION": 15.5142813, "ECCENTRICITY": 0.0001376, "INCLINATION": 42.9995, "RA_OF_ASC_NODE": 111.0561, "ARG_OF_PERICENTER": 280.1926, "MEAN_ANOMALY": 254.4802, "EPHEMERIS_TYPE": 0, "CLASSIFICATION_TYPE": "U", "NORAD_CAT_ID": 66437, "ELEMENT_SET_NO": 999, "REV_AT_EPOCH": 452, "BSTAR": -0.023456, "MEAN_MOTION_DOT": -0.01284099, "MEAN_MOTION_DDOT": 0}, "tle": {"line1": "1 66437U 25259R   25335.83335647 -.01284099  00000+0 -23456-1 0  9991", "line2": "2 66437  42.9995 111.0561 0001376 280.1926 254.4802 15.51428130  4522"}}, "geometry": {"type": "Point", "coordinates": [-0.8302877890769457, -41.35416546261775]}}, {"type": "Feature", "properties": {"norad_id": 66438, "name": "STARLINK-34681", "group": "last-30-days", "lat": -41.75668404943121, "lon": 1.6726226797165202, "alt_km": 418.55026697261655, "timestamp": "2025-12-02T07:10:07.866024+00:00", "meta": {"OBJECT_NAME": "STARLINK-34681", "OBJECT_ID": "2025-259S", "EPOCH": "2025-12-01T20:00:01.999008", "MEAN_MOTION": 15.51430919, "ECCENTRICITY": 0.0001331, "INCLINATION": 42.9997, "RA_OF_ASC_NODE": 111.0515, "ARG_OF_PERICENTER": 273.2768, "MEAN_ANOMALY": 263.3072, "EPHEMERIS_TYPE": 0, "CLASSIFICATION_TYPE": "U", "NORAD_CAT_ID": 66438, "ELEMENT_SET_NO": 999, "REV_AT_EPOCH": 441, "BSTAR": -0.023385, "MEAN_MOTION_DOT": -0.01280653, "MEAN_MOTION_DDOT": 0}, "tle": {"line1": "1 66438U 25259S   25335.83335647 -.01280653  00000+0 -23385-1 0  9995", "line2": "2 66438  42.9997 111.0515 0001331 273.2768 263.3072 15.51430919  4416"}}, "geometry": {"type": "Point", "coordinates": [1.6726226797165202, -41.75668404943121]}}, {"type": "Feature", "properties": {"norad_id": 66439, "name": "STARLINK-35327", "group": "last-30-days", "lat": -40.39418300250255, "lon": -5.71231996370842, "alt_km": 418.603323386149, "timestamp": "2025-12-02T07:10:07.866034+00:00", "meta": {"OBJECT_NAME": "STARLINK-35327", "OBJECT_ID": "2025-259T", "EPOCH": "2025-12-01T20:00:01.999008", "MEAN_MOTION": 15.51428382, "ECCENTRICITY": 0.000129, "INCLINATION": 42.9994, "RA_OF_ASC_NODE": 111.0679, "ARG_OF_PERICENTER": 278.3749, "MEAN_ANOMALY": 252.4637, "EPHEMERIS_TYPE": 0, "CLASSIFICATION_TYPE": "U", "NORAD_CAT_ID": 66439, "ELEMENT_SET_NO": 999, "REV_AT_EPOCH": 452, "BSTAR": -0.023335, "MEAN_MOTION_DOT": -0.01278044, "MEAN_MOTION_DDOT": 0}, "tle": {"line1": "1 66439U 25259T   25335.83335647 -.01278044  00000+0 -23335-1 0  9992", "line2": "2 66439  42.9994 111.0679 0001290 278.3749 252.4637 15.51428382  4523"}}, "geometry": {"type": "Point", "coordinates": [-5.71231996370842, -40.39418300250255]}}, {"type": "Feature", "properties": {"norad_id": 66440, "name": "STARLINK-35405", "group": "last-30-days", "lat": -42.101590720135704, "lon": 4.190208345403092, "alt_km": 418.6467469990339, "timestamp": "2025-12-02T07:10:07.866044+00:00", "meta": {"OBJECT_NAME": "STARLINK-35405", "OBJECT_ID": "2025-259U", "EPOCH": "2025-12-01T20:00:01.999008", "MEAN_MOTION": 15.51427835, "ECCENTRICITY": 0.0001322, "INCLINATION": 42.9994, "RA_OF_ASC_NODE": 111.0476, "ARG_OF_PERICENTER": 280.6903, "MEAN_ANOMALY": 257.8184, "EPHEMERIS_TYPE": 0, "CLASSIFICATION_TYPE": "U", "NORAD_CAT_ID": 66440, "ELEMENT_SET_NO": 999, "REV_AT_EPOCH": 452, "BSTAR": -0.023551, "MEAN_MOTION_DOT": -0.01288766, "MEAN_MOTION_DDOT": 0}, "tle": {"line1": "1 66440U 25259U   25335.83335647 -.01288766  00000+0 -23551-1 0  9996", "line2": "2 66440  42.9994 111.0476 0001322 280.6903 257.8184 15.51427835  4522"}}, "geometry": {"type": "Point", "coordinates": [4.190208345403092, -42.101590720135704]}}, {"type": "Feature", "properties": {"norad_id": 66441, "name": "STARLINK-35426", "group": "last-30-days", "lat": -42.39209277561666, "lon": 6.741002642212732, "alt_km": 418.6696895099876, "timestamp": "2025-12-02T07:10:07.866054+00:00", "meta": {"OBJECT_NAME": "STARLINK-35426", "OBJECT_ID": "2025-259V", "EPOCH": "2025-12-01T20:00:01.999008", "MEAN_MOTION": 15.51429453, "ECCENTRICITY": 0.0001284, "INCLINATION": 42.9995, "RA_OF_ASC_NODE": 111.0421, "ARG_OF_PERICENTER": 280.2964, "MEAN_ANOMALY": 260.129, "EPHEMERIS_TYPE": 0, "CLASSIFICATION_TYPE": "U", "NORAD_CAT_ID": 66441, "ELEMENT_SET_NO": 999, "REV_AT_EPOCH": 452, "BSTAR": -0.023611, "MEAN_MOTION_DOT": -0.01291781, "MEAN_MOTION_DDOT": 0}, "tle": {"line1": "1 66441U 25259V   25335.83335647 -.01291781  00000+0 -23611-1 0  9995", "line2": "2 66441  42.9995 111.0421 0001284 280.2964 260.1290 15.51429453  4527"}}, "geometry": {"type": "Point", "coordinates": [6.741002642212732, -42.39209277561666]}}, {"type": "Feature", "properties": {"norad_id": 66442, "name": "STARLINK-34724", "group": "last-30-days", "lat": -42.63119201250931, "lon": 9.388583087383722, "alt_km": 418.06092130452816, "timestamp": "2025-12-02T07:10:07.866064+00:00", "meta": {"OBJECT_NAME": "STARLINK-34724", "OBJECT_ID": "2025-259W", "EPOCH": "2025-12-01T20:00:01.999008", "MEAN_MOTION": 15.51391453, "ECCENTRICITY": 0.0001773, "INCLINATION": 42.9997, "RA_OF_ASC_NODE": 111.0386, "ARG_OF_PERICENTER": 282.2292, "MEAN_ANOMALY": 260.1049, "EPHEMERIS_TYPE": 0, "CLASSIFICATION_TYPE": "U", "NORAD_CAT_ID": 66442, "ELEMENT_SET_NO": 999, "REV_AT_EPOCH": 452, "BSTAR": -0.02082, "MEAN_MOTION_DOT": -0.01133865, "MEAN_MOTION_DDOT": 0}, "tle": {"line1": "1 66442U 25259W   25335.83335647 -.01133865  00000+0 -20820-1 0  9993", "line2": "2 66442  42.9997 111.0386 0001773 282.2292 260.1049 15.51391453  4529"}}, "geometry": {"type": "Point", "coordinates": [9.388583087383722, -42.63119201250931]}}]}